NORAD_CAT_ID,OBJECT_NAME,OBJECT_TYPE,EPOCH,MEAN_MOTION,ECCENTRICITY,INCLINATION,RA_OF_ASC_NODE,ARG_OF_PERICENTER,MEAN_ANOMALY,BSTAR,MEAN_MOTION_DOT,MEAN_MOTION_DDOT,TLE_LINE0,TLE_LINE1,TLE_LINE2,SEMIMAJOR_AXIS,PERIOD,APOGEE,PERIGEE,DECAYED
52115.0,STARLINK-3685,PAYLOAD,2024-06-14 08:17:33,15.08850933,0.0001357,53.2172,42.3115,92.4451,267.6697,0.00065343,0.0001013,0.0,0 STARLINK-3685,1 52115U 22029AD  24166.34552584  .00010130  00000-0  65343-3 0  9993,2 52115  53.2172  42.3115 0001357  92.4451 267.6697 15.08850933125174,6917.847,95.437,540.651,538.773,0.0
52115.0,STARLINK-3685,PAYLOAD,2024-06-14 22:36:01,15.08839222,0.0001483,53.2183,39.6384,99.3303,260.7857,1.053e-05,-1.2e-06,0.0,0 STARLINK-3685,1 52115U 22029AD  24166.94168902 -.00000120  00000-0  10530-4 0  9994,2 52115  53.2183  39.6384 0001483  99.3303 260.7857 15.08839222125265,6917.883,95.438,540.774,538.722,0.0
52115.0,STARLINK-3685,PAYLOAD,2024-06-15 08:08:20,15.08852961,0.000143,53.2183,37.8577,111.5411,248.5733,0.00033988,5.127e-05,0.0,0 STARLINK-3685,1 52115U 22029AD  24167.33912364  .00005127  00000-0  33988-3 0  9999,2 52115  53.2183  37.8577 0001430 111.5411 248.5733 15.08852961125327,6917.841,95.437,540.695,538.717,0.0
52115.0,STARLINK-3685,PAYLOAD,2024-06-15 20:51:25,15.08839705,0.0001379,53.2173,35.4732,91.0117,269.1033,5.0037e-05,5.08e-06,0.0,0 STARLINK-3685,1 52115U 22029AD  24167.86904734  .00000508  00000-0  50037-4 0  9992,2 52115  53.2173  35.4732 0001379  91.0117 269.1033 15.08839705125402,6917.881,95.438,540.7,538.792,0.0
52115.0,STARLINK-3685,PAYLOAD,2024-06-16 07:59:07,15.08856569,0.0001441,53.218,33.3926,89.2877,270.828,0.0006696,0.0001039,0.0,0 STARLINK-3685,1 52115U 22029AD  24168.33272297  .00010390  00000-0  66960-3 0  9998,2 52115  53.2180  33.3926 0001441  89.2877 270.8280 15.08856569125471,6917.83,95.437,540.692,538.698,0.0
52115.0,STARLINK-3685,PAYLOAD,2024-06-16 22:17:35,15.08839296,0.0001379,53.2168,30.7151,82.108,278.0068,0.00053603,8.253e-05,0.0,0 STARLINK-3685,1 52115U 22029AD  24168.92888836  .00008253  00000-0  53603-3 0  9990,2 52115  53.2168  30.7151 0001379  82.1080 278.0068 15.08839296125568,6917.883,95.438,540.702,538.794,0.0
52115.0,STARLINK-3685,PAYLOAD,2024-06-17 20:33:00,15.08837899,0.0001657,53.2172,26.5521,83.7983,276.3198,0.0002367,3.481e-05,0.0,0 STARLINK-3685,1 52115U 22029AD  24169.85625130  .00003481  00000-0  23670-3 0  9998,2 52115  53.2172  26.5521 0001657  83.7983 276.3198 15.08837899125703,6917.887,95.438,540.898,538.606,0.0
52115.0,STARLINK-3685,PAYLOAD,2024-06-17 22:08:23,15.08839654,0.0001563,53.2169,26.2549,83.2481,276.8689,0.0002783,4.144e-05,0.0,0 STARLINK-3685,1 52115U 22029AD  24169.92249116  .00004144  00000-0  27830-3 0  9991,2 52115  53.2169  26.2549 0001563  83.2481 276.8689 15.08839654125712,6917.881,95.438,540.828,538.665,0.0
52115.0,STARLINK-3685,PAYLOAD,2024-06-18 07:40:41,15.08854042,0.0001534,53.2174,24.4688,84.396,275.7207,0.00055121,8.499e-05,0.0,0 STARLINK-3685,1 52115U 22029AD  24170.31992625  .00008499  00000-0  55121-3 0  9997,2 52115  53.2174  24.4688 0001534  84.3960 275.7207 15.08854042125772,6917.837,95.437,540.764,538.641,0.0
52115.0,STARLINK-3685,PAYLOAD,2024-06-18 20:23:46,15.08840724,0.0001289,53.2174,22.091,84.7916,275.3223,0.0001111,1.481e-05,0.0,0 STARLINK-3685,1 52115U 22029AD  24170.84984831  .00001481  00000-0  11110-3 0  9999,2 52115  53.2174  22.0910 0001289  84.7916 275.3223 15.08840724125851,6917.878,95.438,540.635,538.851,0.0
52115.0,STARLINK-3685,PAYLOAD,2024-06-19 07:31:28,15.08850394,0.0001495,53.2172,20.0083,89.1178,270.9985,0.00029553,4.42e-05,0.0,0 STARLINK-3685,1 52115U 22029AD  24171.31352480  .00004420  00000-0  29553-3 0  9997,2 52115  53.2172  20.0083 0001495  89.1178 270.9985 15.08850394125924,6917.849,95.437,540.748,538.679,0.0
52115.0,STARLINK-3685,PAYLOAD,2024-06-19 20:14:34,15.08838668,0.0001744,53.2191,17.6289,96.7502,263.3689,-7.6501e-06,-4.1e-06,0.0,0 STARLINK-3685,1 52115U 22029AD  24171.84345008 -.00000410  00000-0 -76501-5 0  9997,2 52115  53.2191  17.6289 0001744  96.7502 263.3689 15.08838668126004,6917.884,95.438,540.956,538.543,0.0
52115.0,STARLINK-3685,PAYLOAD,2024-06-20 20:05:21,15.08840646,0.0001633,53.218,13.1673,113.6087,246.5076,4.9696e-05,5.03e-06,0.0,0 STARLINK-3685,1 52115U 22029AD  24172.83704931  .00000503  00000-0  49696-4 0  9996,2 52115  53.2180  13.1673 0001633 113.6087 246.5076 15.08840646126152,6917.878,95.438,540.873,538.614,0.0
52115.0,STARLINK-3685,PAYLOAD,2024-06-20 23:16:07,15.08839695,0.0001604,53.2182,12.5729,112.6219,247.4943,5.0251e-05,5.12e-06,0.0,0 STARLINK-3685,1 52115U 22029AD  24172.96952986  .00000512  00000-0  50251-4 0  9994,2 52115  53.2182  12.5729 0001604 112.6219 247.4943 15.08839695126170,6917.881,95.438,540.856,538.637,0.0
52115.0,STARLINK-3685,PAYLOAD,2024-06-21 13:34:35,15.08835927,0.0001516,53.2185,9.8979,94.3682,265.7483,0.00014095,1.956e-05,0.0,0 STARLINK-3685,1 52115U 22029AD  24173.56569341  .00001956  00000-0  14095-3 0  9998,2 52115  53.2185   9.8979 0001516  94.3682 265.7483 15.08835927126267,6917.893,95.438,540.807,538.709,0.0
52115.0,STARLINK-3685,PAYLOAD,2024-06-21 19:56:08,15.08835144,0.000131,53.2176,8.7075,88.412,271.7022,5.5199e-05,5.91e-06,0.0,0 STARLINK-3685,1 52115U 22029AD  24173.83065646  .00000591  00000-0  55199-4 0  9992,2 52115  53.2176   8.7075 0001310  88.4120 271.7022 15.08835144126307,6917.895,95.438,540.666,538.854,0.0
52115.0,STARLINK-3685,PAYLOAD,2024-06-22 13:25:23,15.08838782,0.0001248,53.2174,5.4366,85.6301,274.4834,9.8173e-05,1.275e-05,0.0,0 STARLINK-3685,1 52115U 22029AD  24174.55929511  .00001275  00000-0  98173-4 0  9991,2 52115  53.2174   5.4366 0001248  85.6301 274.4834 15.08838782126416,6917.884,95.438,540.612,538.886,0.0
52115.0,STARLINK-3685,PAYLOAD,2024-06-22 19:46:55,15.08838872,0.0001252,53.2177,4.2471,85.2092,274.9043,8.7334e-05,1.102e-05,0.0,0 STARLINK-3685,1 52115U 22029AD  24174.82425536  .00001102  00000-0  87334-4 0  9995,2 52115  53.2177   4.2471 0001252  85.2092 274.9043 15.08838872126452,6917.884,95.438,540.615,538.883,0.0
52115.0,STARLINK-3685,PAYLOAD,2024-06-23 19:37:42,15.0883768,0.000124,53.2182,359.7867,98.1253,261.988,0.00010901,1.447e-05,0.0,0 STARLINK-3685,1 52115U 22029AD  24175.81785687  .00001447  00000-0  10901-3 0  9998,2 52115  53.2182 359.7867 0001240  98.1253 261.9880 15.08837680126602,6917.887,95.438,540.61,538.895,0.0
52115.0,STARLINK-3685,PAYLOAD,2024-06-23 22:48:29,15.08838043,0.0001248,53.2182,359.1927,99.1549,260.9584,0.00011007,1.464e-05,0.0,0 STARLINK-3685,1 52115U 22029AD  24175.95033697  .00001464  00000-0  11007-3 0  9997,2 52115  53.2182 359.1927 0001248  99.1549 260.9584 15.08838043126626,6917.886,95.438,540.615,538.888,0.0
52115.0,STARLINK-3685,PAYLOAD,2024-06-24 19:28:29,15.08841388,0.0001199,53.218,355.3266,91.0576,269.0554,7.8458e-05,9.61e-06,0.0,0 STARLINK-3685,1 52115U 22029AD  24176.81145638  .00000961  00000-0  78458-4 0  9997,2 52115  53.2180 355.3266 0001199  91.0576 269.0554 15.08841388126751,6917.876,95.437,540.571,538.912,0.0
52115.0,STARLINK-3685,PAYLOAD,2024-06-25 19:19:16,15.08844147,0.0001169,53.218,350.8656,84.6902,275.4223,0.00010398,1.368e-05,0.0,0 STARLINK-3685,1 52115U 22029AD  24177.80505364  .00001368  00000-0  10398-3 0  9993,2 52115  53.2180 350.8656 0001169  84.6902 275.4223 15.08844147126909,6917.868,95.437,540.541,538.924,0.0
52115.0,STARLINK-3685,PAYLOAD,2024-06-27 04:42:24,15.08826475,0.0001132,53.2179,344.6225,102.4742,257.6377,-2.4325e-05,-6.75e-06,0.0,0 STARLINK-3685,1 52115U 22029AD  24179.19611932 -.00000675  00000-0 -24325-4 0  9994,2 52115  53.2179 344.6225 0001132 102.4742 257.6377 15.08826475127111,6917.922,95.438,540.57,539.004,0.0
52115.0,STARLINK-3685,PAYLOAD,2024-06-27 17:25:28,15.08844759,0.0001178,53.2174,342.2425,98.3158,261.7968,0.00025339,3.748e-05,0.0,0 STARLINK-3685,1 52115U 22029AD  24179.72602503  .00003748  00000-0  25339-3 0  9994,2 52115  53.2174 342.2425 0001178  98.3158 261.7968 15.08844759127191,6917.866,95.437,540.546,538.916,0.0
52115.0,STARLINK-3685,PAYLOAD,2024-06-28 14:05:29,15.08855259,0.0001239,53.2168,338.3774,87.8863,272.2271,0.00049047,7.53e-05,0.0,0 STARLINK-3685,1 52115U 22029AD  24180.58714547  .00007530  00000-0  49047-3 0  9997,2 52115  53.2168 338.3774 0001239  87.8863 272.2271 15.08855259127327,6917.834,95.437,540.556,538.842,0.0
52115.0,STARLINK-3685,PAYLOAD,2024-06-28 17:16:15,15.08868462,0.0001281,53.2168,337.7821,86.5109,273.6029,0.00037824,5.742e-05,0.0,0 STARLINK-3685,1 52115U 22029AD  24180.71962073  .00005742  00000-0  37824-3 0  9994,2 52115  53.2168 337.7821 0001281  86.5109 273.6029 15.08868462127347,6917.793,95.436,540.545,538.772,0.0
52115.0,STARLINK-3685,PAYLOAD,2024-06-29 10:45:29,15.08855886,0.000134,53.2179,334.5118,120.6646,239.4479,3.641e-05,2.92e-06,0.0,0 STARLINK-3685,1 52115U 22029AD  24181.44825632  .00000292  00000-0  36410-4 0  9990,2 52115  53.2179 334.5118 0001340 120.6646 239.4479 15.08855886127452,6917.832,95.437,540.624,538.77,0.0
52115.0,STARLINK-3685,PAYLOAD,2024-06-29 13:56:16,15.08830165,0.0001264,53.2176,333.9175,111.4569,248.6558,-0.00047444,-7.829e-05,0.0,0 STARLINK-3685,1 52115U 22029AD  24181.58074360 -.00007829  00000-0 -47444-3 0  9992,2 52115  53.2176 333.9175 0001264 111.4569 248.6558 15.08830165127477,6917.91,95.438,540.65,538.901,0.0
52115.0,STARLINK-3685,PAYLOAD,2024-06-29 15:31:39,15.08831522,0.0001343,53.2176,333.62,113.861,246.2523,-0.00043362,-7.181e-05,0.0,0 STARLINK-3685,1 52115U 22029AD  24181.64698315 -.00007181  00000-0 -43362-3 0  9997,2 52115  53.2176 333.6200 0001343 113.8610 246.2523 15.08831522127489,6917.906,95.438,540.7,538.842,0.0
52115.0,STARLINK-3685,PAYLOAD,2024-06-30 02:39:21,15.08841636,0.0001015,53.217,331.538,100.0702,260.0404,-0.00011826,-2.169e-05,0.0,0 STARLINK-3685,1 52115U 22029AD  24182.11066124 -.00002169  00000-0 -11826-3 0  9998,2 52115  53.2170 331.5380 0001015 100.0702 260.0404 15.08841636127552,6917.875,95.437,540.443,539.038,0.0
